{
    "week": 293,
    "satellites": [
        {
            "Name": "BEIDOU-2 IGSO-1 (C06)",
            "Line1": "1 36828U 10036A   24327.53564170 -.00000063  00000+0  00000+0 0  9994",
            "Line2": "2 36828  54.2564 168.1295 0042648 205.8728 347.5711  1.00285227 52364",
            "SatelliteNumber": "36828",
            "Classification": "U",
            "LaunchYear": "10",
            "LaunchNumber": "036",
            "PieceOfLaunch": "A",
            "EpochYear": "24",
            "EpochDay": 327.5356417,
            "FirstDerivativeMeanMotion": -6.3e-07,
            "SecondDerivativeMeanMotion": "00000+0",
            "BSTAR": "00000+0",
            "SetNumber": "999",
            "Inclination": 54.2564,
            "RAAN": 168.1295,
            "Eccentricity": 0.0042648,
            "ArgumentOfPerigee": 205.8728,
            "MeanAnomaly": 347.5711,
            "MeanMotion": 1.00285227,
            "RevolutionNumber": "5236"
        },
        {
            "Name": "BEIDOU-2 G4 (C04)",
            "Line1": "1 37210U 10057A   24327.55119036 -.00000107  00000+0  00000+0 0  9991",
            "Line2": "2 37210   2.2304  70.0993 0009634 179.6938 170.6493  1.00272892 51556",
            "SatelliteNumber": "37210",
            "Classification": "U",
            "LaunchYear": "10",
            "LaunchNumber": "057",
            "PieceOfLaunch": "A",
            "EpochYear": "24",
            "EpochDay": 327.55119036,
            "FirstDerivativeMeanMotion": -1.07e-06,
            "SecondDerivativeMeanMotion": "00000+0",
            "BSTAR": "00000+0",
            "SetNumber": "999",
            "Inclination": 2.2304,
            "RAAN": 70.0993,
            "Eccentricity": 0.0009634,
            "ArgumentOfPerigee": 179.6938,
            "MeanAnomaly": 170.6493,
            "MeanMotion": 1.00272892,
            "RevolutionNumber": "5155"
        },
        {
            "Name": "BEIDOU-2 IGSO-2 (C07)",
            "Line1": "1 37256U 10068A   24327.31769417 -.00000208  00000+0  00000+0 0  9993",
            "Line2": "2 37256  48.5905 278.8875 0038092 218.2400 144.3112  1.00252333 51067",
            "SatelliteNumber": "37256",
            "Classification": "U",
            "LaunchYear": "10",
            "LaunchNumber": "068",
            "PieceOfLaunch": "A",
            "EpochYear": "24",
            "EpochDay": 327.31769417,
            "FirstDerivativeMeanMotion": -2.08e-06,
            "SecondDerivativeMeanMotion": "00000+0",
            "BSTAR": "00000+0",
            "SetNumber": "999",
            "Inclination": 48.5905,
            "RAAN": 278.8875,
            "Eccentricity": 0.0038092,
            "ArgumentOfPerigee": 218.24,
            "MeanAnomaly": 144.3112,
            "MeanMotion": 1.00252333,
            "RevolutionNumber": "5106"
        },
        {
            "Name": "BEIDOU-2 IGSO-3 (C08)",
            "Line1": "1 37384U 11013A   24327.64205909 -.00000199  00000+0  00000+0 0  9992",
            "Line2": "2 37384  61.5867  45.5890 0031658 180.9782 174.2323  1.00269247 49926",
            "SatelliteNumber": "37384",
            "Classification": "U",
            "LaunchYear": "11",
            "LaunchNumber": "013",
            "PieceOfLaunch": "A",
            "EpochYear": "24",
            "EpochDay": 327.64205909,
            "FirstDerivativeMeanMotion": -1.99e-06,
            "SecondDerivativeMeanMotion": "00000+0",
            "BSTAR": "00000+0",
            "SetNumber": "999",
            "Inclination": 61.5867,
            "RAAN": 45.589,
            "Eccentricity": 0.0031658,
            "ArgumentOfPerigee": 180.9782,
            "MeanAnomaly": 174.2323,
            "MeanMotion": 1.00269247,
            "RevolutionNumber": "4992"
        },
        {
            "Name": "BEIDOU-2 IGSO-4 (C09)",
            "Line1": "1 37763U 11038A   24327.49407287  .00000003  00000+0  00000+0 0  9999",
            "Line2": "2 37763  54.5621 170.7784 0129665 228.5677 296.8431  1.00275007 48918",
            "SatelliteNumber": "37763",
            "Classification": "U",
            "LaunchYear": "11",
            "LaunchNumber": "038",
            "PieceOfLaunch": "A",
            "EpochYear": "24",
            "EpochDay": 327.49407287,
            "FirstDerivativeMeanMotion": 3e-08,
            "SecondDerivativeMeanMotion": "00000+0",
            "BSTAR": "00000+0",
            "SetNumber": "999",
            "Inclination": 54.5621,
            "RAAN": 170.7784,
            "Eccentricity": 0.0129665,
            "ArgumentOfPerigee": 228.5677,
            "MeanAnomaly": 296.8431,
            "MeanMotion": 1.00275007,
            "RevolutionNumber": "4891"
        },
        {
            "Name": "BEIDOU-2 IGSO-5 (C10)",
            "Line1": "1 37948U 11073A   24327.78701444 -.00000213  00000+0  00000+0 0  9991",
            "Line2": "2 37948  48.7247 278.5779 0101027 222.0856 298.7318  1.00257063 47672",
            "SatelliteNumber": "37948",
            "Classification": "U",
            "LaunchYear": "11",
            "LaunchNumber": "073",
            "PieceOfLaunch": "A",
            "EpochYear": "24",
            "EpochDay": 327.78701444,
            "FirstDerivativeMeanMotion": -2.13e-06,
            "SecondDerivativeMeanMotion": "00000+0",
            "BSTAR": "00000+0",
            "SetNumber": "999",
            "Inclination": 48.7247,
            "RAAN": 278.5779,
            "Eccentricity": 0.0101027,
            "ArgumentOfPerigee": 222.0856,
            "MeanAnomaly": 298.7318,
            "MeanMotion": 1.00257063,
            "RevolutionNumber": "4767"
        },
        {
            "Name": "BEIDOU-2 G5 (C05)",
            "Line1": "1 38091U 12008A   24327.73742939  .00000063  00000+0  00000+0 0  9991",
            "Line2": "2 38091   2.1509  70.9007 0011325 222.5525  93.0267  1.00267847 46741",
            "SatelliteNumber": "38091",
            "Classification": "U",
            "LaunchYear": "12",
            "LaunchNumber": "008",
            "PieceOfLaunch": "A",
            "EpochYear": "24",
            "EpochDay": 327.73742939,
            "FirstDerivativeMeanMotion": 6.3e-07,
            "SecondDerivativeMeanMotion": "00000+0",
            "BSTAR": "00000+0",
            "SetNumber": "999",
            "Inclination": 2.1509,
            "RAAN": 70.9007,
            "Eccentricity": 0.0011325,
            "ArgumentOfPerigee": 222.5525,
            "MeanAnomaly": 93.0267,
            "MeanMotion": 1.00267847,
            "RevolutionNumber": "4674"
        },
        {
            "Name": "BEIDOU-2 M3 (C11)",
            "Line1": "1 38250U 12018A   24327.33364896 -.00000074  00000+0  00000+0 0  9990",
            "Line2": "2 38250  56.2272 324.0696 0025496 266.8291  92.8907  1.86233658 85295",
            "SatelliteNumber": "38250",
            "Classification": "U",
            "LaunchYear": "12",
            "LaunchNumber": "018",
            "PieceOfLaunch": "A",
            "EpochYear": "24",
            "EpochDay": 327.33364896,
            "FirstDerivativeMeanMotion": -7.4e-07,
            "SecondDerivativeMeanMotion": "00000+0",
            "BSTAR": "00000+0",
            "SetNumber": "999",
            "Inclination": 56.2272,
            "RAAN": 324.0696,
            "Eccentricity": 0.0025496,
            "ArgumentOfPerigee": 266.8291,
            "MeanAnomaly": 92.8907,
            "MeanMotion": 1.86233658,
            "RevolutionNumber": "8529"
        },
        {
            "Name": "BEIDOU-2 M4 (C12)",
            "Line1": "1 38251U 12018B   24327.26411305 -.00000073  00000+0  00000+0 0  9990",
            "Line2": "2 38251  56.1325 323.3316 0016396 269.1069  90.7159  1.86232091 85299",
            "SatelliteNumber": "38251",
            "Classification": "U",
            "LaunchYear": "12",
            "LaunchNumber": "018",
            "PieceOfLaunch": "B",
            "EpochYear": "24",
            "EpochDay": 327.26411305,
            "FirstDerivativeMeanMotion": -7.3e-07,
            "SecondDerivativeMeanMotion": "00000+0",
            "BSTAR": "00000+0",
            "SetNumber": "999",
            "Inclination": 56.1325,
            "RAAN": 323.3316,
            "Eccentricity": 0.0016396,
            "ArgumentOfPerigee": 269.1069,
            "MeanAnomaly": 90.7159,
            "MeanMotion": 1.86232091,
            "RevolutionNumber": "8529"
        },
        {
            "Name": "BEIDOU-2 M6 (C14)",
            "Line1": "1 38775U 12050B   24326.43680982 -.00000016  00000+0  00000+0 0  9991",
            "Line2": "2 38775  56.0444  81.9137 0010629 341.9933  17.9540  1.86230974 82998",
            "SatelliteNumber": "38775",
            "Classification": "U",
            "LaunchYear": "12",
            "LaunchNumber": "050",
            "PieceOfLaunch": "B",
            "EpochYear": "24",
            "EpochDay": 326.43680982,
            "FirstDerivativeMeanMotion": -1.6e-07,
            "SecondDerivativeMeanMotion": "00000+0",
            "BSTAR": "00000+0",
            "SetNumber": "999",
            "Inclination": 56.0444,
            "RAAN": 81.9137,
            "Eccentricity": 0.0010629,
            "ArgumentOfPerigee": 341.9933,
            "MeanAnomaly": 17.954,
            "MeanMotion": 1.86230974,
            "RevolutionNumber": "8299"
        }
    ]
}